ONEWEB-0589             
1 54655U 22166P   24350.47335747 -.00000023  00000+0 -87903-4 0  9993
2 54655  87.9291 353.3065 0002708  84.1158 276.0284 13.21827939 99521
ONEWEB-0590             
1 54656U 22166Q   24350.72409731  .00000083  00000+0  16844-3 0  9996
2 54656  87.9279 353.2614 0001940  94.9505 265.1851 13.21827353 99078
ONEWEB-0591             
1 54657U 22166R   24350.96381976  .00000096  00000+0  20168-3 0  9991
2 54657  87.9291 353.2102 0001994  89.7296 270.4067 13.21825867 99596
ONEWEB-0592             
1 54658U 22166S   24349.75580569  .00000041  00000+0  67319-4 0  9996
2 54658  87.9289 353.4096 0002001  91.7348 268.4015 13.21823090 99326
ONEWEB-0593             
1 54659U 22166T   24350.76351601 -.00000065  00000+0 -18902-3 0  9994
2 54659  87.9291 353.2410 0002014  88.6988 271.4377 13.21824589 99090
ONEWEB-0594             
1 54660U 22166U   24350.40396055 -.00000013  00000+0 -63904-4 0  9995
2 54660  87.9295 353.3188 0001769  87.7604 272.3732 13.21823673 99526
ONEWEB-0595             
1 54661U 22166V   24350.45759469  .00000028  00000+0  35696-4 0  9994
2 54661  87.9293 353.2912 0001708  94.6297 265.5032 13.21826723 99512
ONEWEB-0596             
1 54662U 22166W   24350.73354788  .00000156  00000+0  34534-3 0  9992
2 54662  87.9294 353.2450 0002090  93.1234 267.0139 13.21829160 99086
